STARLINK-3912           
1 52502U 22049BD  26068.32092553 -.00001533  00000+0 -78262-4 0  9994
2 52502  53.2171  40.8031 0001318  87.8622 272.2521 15.08837630212475
LEMUR-2-STELLA          
1 60533U 24149BT  26068.72657350  .00013685  00000+0  85776-3 0  9992
2 60533  97.6764 150.9122 0001299  95.1117 265.0260 15.09464064 85488
